SL-3 R/B                
1 13403U 82079B   26023.90210670  .00008167  00000+0  33176-3 0  9999
2 13403  81.1442 245.9429 0024660 320.0544  39.8873 15.24156824370875
SL-14 R/B               
1 13553U 82092B   26023.55292208  .00001002  00000+0  10971-3 0  9997
2 13553  82.5680 183.6048 0021887  90.9963 359.0983 14.86607857322220
SL-3 R/B                
1 13819U 83010B   26023.50544974  .00017879  00000+0  37942-3 0  9994
2 13819  81.1015  57.5845 0016679 199.4502 160.6108 15.44760624350967
SL-3 R/B                
1 14208U 83075B   26023.91960805  .00017395  00000+0  47528-3 0  9992
2 14208  97.6126  26.8539 0023447  34.4042 325.8715 15.37183945323272
COSMOS 1536             
1 14699U 84013A   26023.79488937  .00009355  00000+0  39328-3 0  9992
2 14699  82.5471 152.4405 0015678  81.7418 278.5596 15.23160726265788
SL-14 R/B               
1 14820U 84027B   26023.98039524  .00000970  00000+0  10811-3 0  9998
2 14820  82.5425 286.9492 0019327 118.9389 241.3768 14.85928795240997
SL-8 R/B                
1 15483U 85006B   26023.37210552  .00000607  00000+0  20996-3 0  9999
2 15483  74.0471 344.5321 0019777 270.2213 206.9153 14.37754789147515
SL-12 R/B(2)            
1 15772U 85042D   26023.53267296  .00000219  00000+0  11976-3 0  9992
2 15772  71.1068 183.1280 0035935 199.3709 225.2366 14.21966548107979
SL-14 R/B               
1 15945U 85069B   26023.84409361  .00000815  00000+0  89497-4 0  9994
2 15945  82.5246  67.1146 0018348 345.7581  14.3116 14.86377315166177
SL-16 R/B               
1 16182U 85097B   26023.02651008 -.00000124  00000+0 -38269-4 0  9992
2 16182  71.0003 236.6846 0008974 313.5762 152.8358 14.16590864 80768
SL-14 R/B               
1 16496U 86006B   26023.49631030  .00001427  00000+0  14881-3 0  9993
2 16496  82.5287 302.2673 0078112  63.0251 297.8915 14.86740697142492
COSMOS 1743             
1 16719U 86034A   26023.71486593  .00046196  00000+0  68201-3 0  9996
2 16719  82.5349 120.9030 0005417  99.6150 260.5716 15.55144084173251
